UNKNOWN                 
1 82829U          25154.05576756 -.00000136  00000+0 -26230-2 0  9993
2 82829  65.1020   7.7975 0167680  16.1629 142.5128 11.29094498464322
UNKNOWN                 
1 82854U          25155.42249200  .00001669  00000+0  13130-2 0  9999
2 82854  82.6899 214.5077 0134541 104.4167 257.1970 13.87102331 53635
UNKNOWN                 
1 82873U          25151.35728097  .00002998  00000+0  13449-2 0  9993
2 82873 100.0087  19.0360 0040930 104.1443 256.4283 14.22932927593433
UNKNOWN                 
1 82875U          25154.69389161  .00000969  00000+0  26137-3 0  9995
2 82875  98.6570 143.0457 0381095 113.8757 250.2836 14.14723882517312
UNKNOWN                 
1 82893U          25152.02352240  .00006602  00000+0  26661-2 0  9999
2 82893  98.9601 261.5807 0025426 240.6668 119.1972 14.28045802396153
UNKNOWN                 
1 82912U          25153.01594375  .00001391  00000+0  61862-3 0  9991
2 82912  65.8337 260.0451 0776221 356.8359   2.7916 13.26278703553623
UNKNOWN                 
1 82961U          25152.69218594  .00042593  00000+0  66351-1 0  9999
2 82961  99.9113 317.3275 0429224 103.9614 260.9611 13.19034765530096
UNKNOWN                 
1 82965U 70025    25151.98950662  .00001047  00000+0  14789-2 0  9995
2 82965 100.1219 225.2110 0002431 142.4150 217.7158 13.59530695497980
UNKNOWN                 
1 83903U          25154.62003679 -.00000137  00000+0  00000+0 0  9993
2 83903   6.6553 292.3415 0124083 244.5804 122.0325  0.99117101 41763
UNKNOWN                 
1 83934U          25154.47886674 -.00000042  00000+0  00000+0 0  9999
2 83934   6.2131 298.8580 0222270 265.2157  56.8290  1.02662351 43301
UNKNOWN                 
1 83970U          25154.07194722  .00008566  00000+0  95119-2 0  9997
2 83970  18.2736  77.4520 5080069 101.7955 317.1664  5.30299460185951
UNKNOWN                 
1 84006U          25152.89153747 -.00000148  00000+0  00000+0 0  9999
2 84006  22.8191 215.4842 6085920 354.4902   1.2021  2.16230530 80035
UNKNOWN                 
1 84188U          25153.77990059  .00468335  00000+0  27831+0 0  9999
2 84188  65.1434  50.6681 4069264  38.1355 344.7053  7.03822223 27325
UNKNOWN                 
1 84232U 79104    25151.05028913  .00008977  00000+0  58503-2 0  9995
2 84232  20.5498  24.9933 6595876 223.8362  59.1755  3.13792513 98521
UNKNOWN                 
1 84236U          25151.94424530 -.00000145  00000+0 -25906-3 0  9994
2 84236   9.3038  62.5196 6886795 281.8287  13.9149  2.62467618197581
UNKNOWN                 
1 84292U          25154.04251419  .00005915  00000+0  27862-2 0  9994
2 84292  23.8311  66.9145 4589178 136.3136 270.8780  6.19704745216094
UNKNOWN                 
1 84406U          25153.19015936  .00000418  00000+0  24205-2 0  9999
2 84406 101.7131 294.9454 0044791  68.1973 113.2812 12.67081166 24792
UNKNOWN                 
1 84407U          25151.08525711 -.00000810  00000+0 -62895-1 0  9997
2 84407  19.5875  19.7824 7203240 317.1100   5.2153  2.05766480 71846
UNKNOWN                 
1 84437U          25151.20668839 -.00000140  00000+0  00000+0 0  9996
2 84437  18.9289 305.3824 7017985 171.3811 214.5609  1.97306306  9088
UNKNOWN                 
1 84932U          25154.36268247  .00000099  00000+0  20617-2 0  9996
2 84932   2.3639 344.1332 6548443 213.3336  77.2794  2.99655003126000
UNKNOWN                 
1 84950U          25126.62830235 -.00000411  00000+0  00000+0 0  9996
2 84950   1.8213 108.1371 6949888  67.0662 170.1890  2.04220595 85494
UNKNOWN                 
1 85004U          25154.70039387  .00001667  00000+0  53005-3 0  9996
2 85004  98.3966 128.9729 0048208  21.2659 158.0315 14.40526103603249
UNKNOWN                 
1 85010U          25152.58166649  .00001820  00000+0  19596-2 0  9996
2 85010  99.2671  20.3527 0027847  43.8718 346.1735 13.74591225577241
UNKNOWN                 
1 85015U          25153.96027243  .00000587  00000+0  12289-3 0  9992
2 85015  74.0492  47.0285 0014521 358.7533   1.3594 14.62018943614438
UNKNOWN                 
1 85023U          25154.41676859  .00032383  00000+0  61811-2 0  9998
2 85023  99.8520 131.0844 0003490 105.4800  51.7144 14.63850771600615
UNKNOWN                 
1 85027U          25154.44565437  .00000186  00000+0  24918-3 0  9998
2 85027  66.0405 212.3871 0185021 289.2724  68.8408 13.74149401578198
UNKNOWN                 
1 85047U          25154.54826514  .00021647  00000+0  37424-1 0  9996
2 85047 102.3620  79.0722 0162129  70.0659 291.7844 13.38995440550893
UNKNOWN                 
1 85061U          25148.41804481  .00003840  00000+0  16080-1 0  9990
2 85061 102.4269 114.4677 0248326 215.8453 300.4620 12.75235640530489
UNKNOWN                 
1 85100U          25154.42442898  .00000431  00000+0  14371-3 0  9998
2 85100  74.0455 218.2643 0011530 138.0161 238.4582 14.40524188605658
UNKNOWN                 
1 85106U          25154.74271117  .00000661  00000+0  77348-3 0  9991
2 85106 100.0536 246.2385 0010924 140.0289  11.8779 13.72626852576729
UNKNOWN                 
1 85151U 86019    25152.39672401  .00015611  00000+0  25577-2 0  9992
2 85151  98.4167   9.2716 0012399  41.9538 318.2615 14.70785400450906
UNKNOWN                 
1 85210U 75052    25154.31565317  .00001066  00000+0  10504-2 0  9997
2 85210  99.8416 290.3043 0217485  87.7860 304.4126 13.71130212575782
UNKNOWN                 
1 85217U          25154.74497570  .00002355  00000+0  64255-3 0  9992
2 85217  98.0263 261.9465 0210882 348.2482  11.3825 14.35926062600293
UNKNOWN                 
1 85237U          25148.03074530  .00005560  00000+0  12355-2 0  9990
2 85237  65.5368  15.0519 0517053 119.5279 245.8379 13.98296756580542
UNKNOWN                 
1 85238U          25154.57756068  .00000077  00000+0  98392-4 0  9995
2 85238  99.0471  89.4674 0063500   1.4588 180.5397 13.88302544584172
UNKNOWN                 
1 85246U          25153.77391296  .00001677  00000+0  61380-3 0  9996
2 85246  97.9895 175.4298 0225932 152.4468 208.8904 14.20826643595661
UNKNOWN                 
1 85373U          25148.29064135  .00002717  00000+0  19016-2 0  9991
2 85373 100.4346 157.0350 0046612  41.4485 335.2885 13.98948183584377
UNKNOWN                 
1 87014U          25154.36459848  .00002725  00000+0  42649-2 0  9996
2 87014 100.5120 107.9796 0053882 350.6311 161.0552 13.50824497564935
UNKNOWN                 
1 87029U 99025    25152.07831087  .00000734  00000+0  47538-3 0  9993
2 87029  98.7723 194.0793 0084376  76.4953 284.5599 14.04010441565680
UNKNOWN                 
1 87042U 00055    25154.58905156  .00000939  00000+0  58607-3 0  9996
2 87042  98.7323 204.5284 0041883 276.2244  83.4155 14.06739130526947
UNKNOWN                 
1 87051U 76126    25151.97635608  .00001312  00000+0  44877-3 0  9990
2 87051  65.7303 358.3047 0732944 229.4011 124.1029 13.44814791562380
UNKNOWN                 
1 87054U 75052    25153.85841737  .00003484  00000+0  20013-2 0  9998
2 87054 100.1067   9.7063 0013767 139.5618 220.6574 14.10046295589137
UNKNOWN                 
1 87071U 68097    25152.92643152  .00003564  00000+0  12461-2 0  9993
2 87071  61.2160 126.6816 0504766 142.4229 221.3223 13.83210246575656
UNKNOWN                 
1 87074U 77121    25154.21122697  .00000265  00000+0  35301-3 0  9998
2 87074  66.1432   5.6313 0145719  11.7337 348.7062 13.71408170576782
UNKNOWN                 
1 87113U 76126    25153.89817751  .00110027  00000+0  36250-2 0  9992
2 87113  65.6252 322.8118 0120655 297.4059  61.4844 15.24088212606303
UNKNOWN                 
1 87129U 76077    25153.00623025  .00000195  00000+0  17386-2 0  9999
2 87129 102.2640 241.6515 0033227  88.4475 272.0394 12.42729476522607
UNKNOWN                 
1 87159U          25152.98983453  .00001244  00000+0  14526-2 0  9994
2 87159  90.3471  62.4710 0109873 110.5672 250.7316 13.65524181530240
UNKNOWN                 
1 87163U 76126    25153.17485156  .00005677  00000+0  16984-2 0  9994
2 87163  65.5987 353.1501 0652843 151.2022 212.6777 13.62486512551131
UNKNOWN                 
1 87164U          25154.32483822  .00004420  00000+0  94877-3 0  9992
2 87164  65.2019 165.4526 0104694 146.5116 214.2661 14.56314334607737
UNKNOWN                 
1 87204U          25153.07502828  .00002680  00000+0  10782-2 0  9994
2 87204  98.5573  17.7647 0045895 171.1101 189.0903 14.28331203251268
UNKNOWN                 
1 87211U          25154.74454924  .00006453  00000+0  18352-2 0  9993
2 87211  99.0759 141.2055 0055462  11.1397 166.0828 14.44805725680030
UNKNOWN                 
1 87214U 70025    25153.39958524  .00002697  00000+0  24462-2 0  9990
2 87214 100.3221 133.3211 0077528  29.5237 331.0259 13.83264960573509
UNKNOWN                 
1 87237U 99025    25152.12296155  .00000255  00000+0  22566-3 0  9993
2 87237  99.2776 207.7786 0104813  90.4919 299.0256 13.91566317584692
UNKNOWN                 
1 87239U 81053    25154.50361020  .00014321  00000+0  38359-2 0  9990
2 87239  82.8750 245.4447 0018629 283.0706  76.8411 14.48044545600027
UNKNOWN                 
1 87245U 71015    25154.54822367  .00009756  00000+0  19270-2 0  9991
2 87245  65.6575 200.6142 0453924 216.0048 296.9740 14.13403616587023
UNKNOWN                 
1 87271U 71015    25154.04675801  .00008903  00000+0  16426-2 0  9997
2 87271  65.7572  32.7846 0441060 174.8172 185.7714 14.18223678585018
UNKNOWN                 
1 87280U          25154.29636699  .00000318  00000+0  61490-3 0  9996
2 87280  64.6166 351.2492 0127281 299.5494  59.2906 13.48358327507901
UNKNOWN                 
1 87293U 71015    25154.65125755  .00014336  00000+0  30332-2 0  9995
2 87293  65.8971 294.1459 0428737 105.5442 259.3394 14.14853332586797
UNKNOWN                 
1 87300U 70025    25151.62136353  .00001649  00000+0  11791-2 0  9995
2 87300 100.0714 114.8475 0030940  89.4014 271.0691 13.98672088585832
